     2.100          NAVIGATION                              RINEX VERSION / TYPE
fic2rin                                 04/06/2017 00:07:04 PGM / RUN BY / DATE
                                                            END OF HEADER
 3 17  4  5 20  0  0.0 -.105275306851D-03  .102318153949D-11  .000000000000D+00
     .650000000000D+02 -.140312500000D+02  .430089343519D-08 -.222403974327D+01
    -.635161995888D-06  .555909122340D-03  .108387321234D-04  .515376775742D+04
     .331200000000D+06  .558793544769D-08 -.472578069048D+00  .502914190292D-07
     .960020267920D+00  .170781250000D+03  .162190633377D+00 -.782318300983D-08
     .308227124611D-09  .100000000000D+01  .194300000000D+04  .000000000000D+00
     .240000000000D+01  .000000000000D+00  .186264514923D-08  .650000000000D+02
     .324006000000D+06  .400000000000D+01
 4 17  4  5 20  0  0.0  .147055834532D-05  .568434188608D-12  .000000000000D+00
     .150000000000D+02  .695000000000D+02  .530129224867D-08  .174233320292D+01
     .354088842869D-05  .909769698046D-02  .101476907730D-04  .515374688721D+04
     .331200000000D+06 -.216066837311D-06  .269419523168D+01 -.484287738800D-07
     .982385902259D+00  .196718750000D+03  .887350262912D+00 -.785961309872D-08
     .667884962947D-10  .100000000000D+01  .194300000000D+04  .000000000000D+00
     .340000000000D+01  .630000000000D+02 -.195577740669D-07  .150000000000D+02
     .324006000000D+06  .400000000000D+01
 5 17  4  5 20  0  0.0 -.521466135979D-04  .181898940355D-11  .000000000000D+00
     .340000000000D+02 -.328125000000D+01  .467840916023D-08  .144734844111D+01
    -.119209289551D-06  .492496776860D-02  .107344239950D-04  .515372047234D+04
     .331200000000D+06 -.875443220139D-07 -.488705829474D+00 -.130385160446D-07
     .946982006150D+00  .166875000000D+03  .541868949805D+00 -.808605110220D-08
     .194650965137D-09  .100000000000D+01  .194300000000D+04  .000000000000D+00
     .240000000000D+01  .000000000000D+00 -.107102096081D-07  .340000000000D+02
     .324006000000D+06  .400000000000D+01
 6 17  4  5 20  0  0.0  .334048178047D-03  .500222085975D-11  .000000000000D+00
     .520000000000D+02 -.774062500000D+02  .437589655937D-08 -.132593533549D+01
    -.403821468353D-05  .799242639914D-03  .701099634171D-05  .515365052414D+04
     .331200000000D+06  .167638063431D-07 -.152340409937D+01  .391155481339D-07
     .966423314062D+00  .249500000000D+03 -.120418190685D+01 -.811069498586D-08
    -.178221709364D-09  .100000000000D+01  .194300000000D+04  .000000000000D+00
     .240000000000D+01  .000000000000D+00  .419095158577D-08  .520000000000D+02
     .324006000000D+06  .400000000000D+01
 7 17  4  5 20  0  0.0  .365563668311D-03 -.409272615798D-11  .000000000000D+00
     .400000000000D+02 -.188750000000D+02  .463840749400D-08 -.210630313365D+01
    -.117905437946D-05  .102745536715D-01  .811368227005D-05  .515374769211D+04
     .331200000000D+06  .707805156708D-07  .164256253370D+01 -.124797224998D-06
     .962583723179D+00  .223375000000D+03 -.261025145623D+01 -.801640534403D-08
    -.239652839646D-09  .100000000000D+01  .194300000000D+04  .000000000000D+00
     .240000000000D+01  .000000000000D+00 -.111758708954D-07  .400000000000D+02
     .324006000000D+06  .400000000000D+01
 8 17  4  5 20  0  0.0 -.552595593035D-04 -.136424205266D-11  .000000000000D+00
     .910000000000D+02  .222500000000D+02  .465805116939D-08  .122165716551D+01
     .103190541267D-05  .260102073662D-02  .337138772011D-05  .515361044312D+04
     .331200000000D+06 -.149011611938D-07 -.257785701082D+01  .931322574615D-08
     .966383588521D+00  .312125000000D+03 -.757091305675D+00 -.838713507213D-08
     .253581991279D-10  .100000000000D+01  .194300000000D+04  .000000000000D+00
     .340000000000D+01  .000000000000D+00  .465661287308D-08  .910000000000D+02
     .324006000000D+06  .400000000000D+01
10 17  4  5 20  0  0.0 -.819638371468D-04  .704858393874D-11  .000000000000D+00
     .810000000000D+02 -.628125000000D+01  .435518141079D-08  .260918355529D+01
    -.206753611565D-06  .238965323661D-02  .114589929581D-04  .515367746544D+04
     .331200000000D+06 -.167638063431D-07 -.476329646390D+00  .130385160446D-07
     .960194330302D+00  .156375000000D+03 -.281024397323D+01 -.787068498848D-08
     .351086052715D-09  .100000000000D+01  .194300000000D+04  .000000000000D+00
     .240000000000D+01  .000000000000D+00  .232830643654D-08  .810000000000D+02
     .324006000000D+06  .400000000000D+01
11 17  4  5 20  0  0.0 -.679424963892D-03 -.238742359215D-11  .000000000000D+00
     .150000000000D+02 -.690937500000D+02  .591274628962D-08 -.210878276809D+01
    -.336579978466D-05  .166481488850D-01  .316463410854D-05  .515370470428D+04
     .331200000000D+06  .350177288055D-06 -.191403721012D+01  .201165676117D-06
     .899987781681D+00  .283343750000D+03  .162985368597D+01 -.873893544031D-08
    -.212866009581D-09  .100000000000D+01  .194300000000D+04  .000000000000D+00
     .240000000000D+01  .000000000000D+00 -.121071934700D-07  .150000000000D+02
     .324006000000D+06  .400000000000D+01
12 17  4  5 20  0  0.0  .385945662856D-03 -.568434188608D-12  .000000000000D+00
     .510000000000D+02  .574062500000D+02  .383265964566D-08 -.271230565572D+01
     .301189720631D-05  .662507128436D-02  .895000994205D-05  .515355993271D+04
     .331200000000D+06  .819563865662D-07  .272578322886D+01 -.115483999252D-06
     .989642367994D+00  .219531250000D+03  .825585171108D+00 -.768067707389D-08
     .803604901941D-10  .100000000000D+01  .194300000000D+04  .000000000000D+00
     .240000000000D+01  .000000000000D+00 -.121071934700D-07  .510000000000D+02
     .324006000000D+06  .400000000000D+01
13 17  4  5 20  0  0.0 -.768201425672D-04 -.159161572810D-11  .000000000000D+00
     .540000000000D+02  .233437500000D+02  .467233747875D-08 -.108353093620D+01
     .122189521790D-05  .392819463741D-02  .614114105701D-05  .515368256760D+04
     .331200000000D+06 -.819563865662D-07  .689142706383D+00 -.372529029846D-07
     .969985785836D+00  .269031250000D+03  .184389599653D+01 -.820998483597D-08
     .110718897601D-09  .100000000000D+01  .194300000000D+04  .000000000000D+00
     .240000000000D+01  .000000000000D+00 -.111758708954D-07  .540000000000D+02
     .324006000000D+06  .400000000000D+01
14 17  4  5 20  0  0.0 -.657332129776D-04 -.159161572810D-11  .000000000000D+00
     .380000000000D+02  .311562500000D+02  .489056085435D-08  .284203949412D+00
     .151060521603D-05  .888205063529D-02  .612810254097D-05  .515363155556D+04
     .331200000000D+06 -.132247805595D-06  .650037560239D+00  .633299350739D-07
     .962528288824D+00  .263406250000D+03 -.196079041299D+01 -.837749181330D-08
     .126076680171D-09  .100000000000D+01  .194300000000D+04  .000000000000D+00
     .240000000000D+01  .000000000000D+00 -.931322574615D-08  .380000000000D+02
     .324006000000D+06  .400000000000D+01
15 17  4  5 20  0  0.0 -.347230117768D-03 -.795807864051D-12  .000000000000D+00
     .340000000000D+02  .311250000000D+02  .558523264736D-08 -.232305795326D+00
     .180117785931D-05  .909412850160D-02  .599958002567D-05  .515376664925D+04
     .331200000000D+06  .651925802231D-07  .503400121824D+00  .856816768646D-07
     .929629255178D+00  .246875000000D+03  .578371040961D+00 -.874750722593D-08
     .221080637467D-09  .100000000000D+01  .194300000000D+04  .000000000000D+00
     .240000000000D+01  .000000000000D+00 -.107102096081D-07  .340000000000D+02
     .324006000000D+06  .400000000000D+01
16 17  4  5 20  0  0.0  .306526198983D-04  .909494701773D-12  .000000000000D+00
     .280000000000D+02  .660625000000D+02  .383944564261D-08  .158290118685D+01
     .369921326637D-05  .933541660197D-02  .101923942566D-04  .515368134689D+04
     .331200000000D+06 -.447034835815D-07  .274462256354D+01  .169500708580D-06
     .990130622755D+00  .200031250000D+03  .424826099827D+00 -.783354058412D-08
     .571452374714D-11  .100000000000D+01  .194300000000D+04  .000000000000D+00
     .240000000000D+01  .000000000000D+00 -.107102096081D-07  .280000000000D+02
     .324006000000D+06  .400000000000D+01
17 17  4  5 20  0  0.0 -.185173936188D-03  .159161572810D-11  .000000000000D+00
     .190000000000D+02  .950000000000D+01  .435518141079D-08  .583347445003D+00
     .538304448128D-06  .116413285723D-01  .429339706898D-05  .515360620117D+04
     .331200000000D+06 -.122934579849D-06 -.252101383960D+01  .260770320892D-07
     .979567608134D+00  .310000000000D+03 -.185056483294D+01 -.837499170916D-08
    -.175007289756D-10  .100000000000D+01  .194300000000D+04  .000000000000D+00
     .240000000000D+01  .000000000000D+00 -.107102096081D-07  .190000000000D+02
     .324006000000D+06  .400000000000D+01
18 17  4  5 20  0  0.0  .608816277236D-03  .216004991671D-11  .000000000000D+00
     .520000000000D+02 -.181875000000D+02  .501128016851D-08  .208711122109D+01
    -.100955367088D-05  .178910219111D-01  .113323330879D-04  .515375508308D+04
     .331200000000D+06  .184401869774D-06 -.516565980772D+00 -.314787030220D-06
     .925734247496D+00  .138593750000D+03 -.181739027477D+01 -.803747765035D-08
     .351800368183D-09  .100000000000D+01  .194300000000D+04  .000000000000D+00
     .240000000000D+01  .000000000000D+00 -.111758708954D-07  .520000000000D+02
     .324006000000D+06  .400000000000D+01
19 17  4  5 20  0  0.0 -.508140772581D-03  .125055521494D-11  .000000000000D+00
     .780000000000D+02  .165625000000D+01  .436625330055D-08 -.256415957572D+01
     .912696123123D-07  .102184562711D-01  .376813113689D-05  .515366129875D+04
     .331200000000D+06  .212341547012D-06 -.247305592516D+01 -.100582838058D-06
     .976777985741D+00  .313781250000D+03  .940180743467D+00 -.810712340852D-08
     .103932900651D-09  .100000000000D+01  .194300000000D+04  .000000000000D+00
     .240000000000D+01  .000000000000D+00 -.153668224812D-07  .780000000000D+02
     .324006000000D+06  .400000000000D+01
